start=new Date('2022-05-16T00:00:00.000Z').valueOf();
sats=[{"DECAY_DATE":null,"MEAN_MOTION":"15.06403263","RCS_SIZE":"LARGE","INCLINATION":"53.0546","SEMIMAJOR_AXIS":"6925.339","OBJECT_ID":"2021-005AG","MEAN_MOTION_DDOT":"0.0000000000000","ECCENTRICITY":"0.00018080","OBJECT_TYPE":"PAYLOAD","MEAN_MOTION_DOT":"0.00001271","PERIAPSIS":"545.951","CENTER_NAME":"EARTH","BSTAR":"0.00010424000000","CLASSIFICATION_TYPE":"U","ELEMENT_SET_NO":"999","COUNTRY_CODE":"US","REF_FRAME":"TEME","EPOCH":"2022-05-15T18:12:33.831360","RA_OF_ASC_NODE":"159.2189","SITE":"AFETR","ARG_OF_PERICENTER":"49.1382","TIME_SYSTEM":"UTC","LAUNCH_DATE":"2021-01-20","PERIOD":"95.592","OBJECT_NAME":"STARLINK-2099","FILE":"3447521","TLE_LINE1":"1 47379U 21005AG  22135.75872490  .00001271  00000-0  10424-3 0  9998","MEAN_ANOMALY":"310.9764","REV_AT_EPOCH":"7350","APOAPSIS":"548.456","GP_ID":"203650128","TLE_LINE2":"2 47379  53.0546 159.2189 0001808  49.1382 310.9764 15.06403263 73509","EPHEMERIS_TYPE":"0","NORAD_CAT_ID":"47379","MEAN_ELEMENT_THEORY":"SGP4"},{"REF_FRAME":"TEME","COUNTRY_CODE":"US","ELEMENT_SET_NO":"999","CLASSIFICATION_TYPE":"U","CENTER_NAME":"EARTH","BSTAR":"-0.00009467900000","ARG_OF_PERICENTER":"51.2628","SITE":"AFETR","RA_OF_ASC_NODE":"170.2746","EPOCH":"2022-05-15T12:31:33.644352","MEAN_MOTION":"15.06393776","RCS_SIZE":"LARGE","DECAY_DATE":null,"OBJECT_TYPE":"PAYLOAD","MEAN_MOTION_DOT":"-0.00001691","PERIAPSIS":"545.956","ECCENTRICITY":"0.00018440","OBJECT_ID":"2021-005AH","MEAN_MOTION_DDOT":"0.0000000000000","SEMIMAJOR_AXIS":"6925.368","INCLINATION":"53.0524","TLE_LINE2":"2 47380  53.0524 170.2746 0001844  51.2628 308.8526 15.06393776 73336","GP_ID":"203613492","APOAPSIS":"548.510","NORAD_CAT_ID":"47380","MEAN_ELEMENT_THEORY":"SGP4","EPHEMERIS_TYPE":"0","TLE_LINE1":"1 47380U 21005AH  22135.52191718 -.00001691  00000-0 -94679-4 0  9995","OBJECT_NAME":"STARLINK-2100","FILE":"3447100","PERIOD":"95.593","LAUNCH_DATE":"2021-01-20","TIME_SYSTEM":"UTC","REV_AT_EPOCH":"7333","MEAN_ANOMALY":"308.8526"},{"LAUNCH_DATE":"2021-01-20","TIME_SYSTEM":"UTC","PERIOD":"95.592","TLE_LINE1":"1 47381U 21005AJ  22135.79509584  .00001101  00000-0  92820-4 0  9999","OBJECT_NAME":"STARLINK-2101","FILE":"3447521","MEAN_ANOMALY":"303.3724","REV_AT_EPOCH":"7330","APOAPSIS":"548.274","TLE_LINE2":"2 47381  53.0519 174.0539 0001542  56.7412 303.3724 15.06402464 73301","GP_ID":"203648633","EPHEMERIS_TYPE":"0","NORAD_CAT_ID":"47381","MEAN_ELEMENT_THEORY":"SGP4","DECAY_DATE":null,"MEAN_MOTION":"15.06402464","RCS_SIZE":"LARGE","SEMIMAJOR_AXIS":"6925.341","INCLINATION":"53.0519","ECCENTRICITY":"0.00015420","MEAN_MOTION_DDOT":"0.0000000000000","OBJECT_ID":"2021-005AJ","MEAN_MOTION_DOT":"0.00001101","OBJECT_TYPE":"PAYLOAD","PERIAPSIS":"546.138","ELEMENT_SET_NO":"999","BSTAR":"0.00009282000000","CENTER_NAME":"EARTH","CLASSIFICATION_TYPE":"U","COUNTRY_CODE":"US","REF_FRAME":"TEME","EPOCH":"2022-05-15T19:04:56.280576","SITE":"AFETR","RA_OF_ASC_NODE":"174.0539","ARG_OF_PERICENTER":"56.7412"},{"MEAN_ANOMALY":"311.7972","REV_AT_EPOCH":"7336","TIME_SYSTEM":"UTC","LAUNCH_DATE":"2021-01-20","FILE":"3447521","OBJECT_NAME":"STARLINK-2102","TLE_LINE1":"1 47382U 21005AK  22135.77992432 -.00001839  00000-0 -10460-3 0  9995","PERIOD":"95.592","EPHEMERIS_TYPE":"0","NORAD_CAT_ID":"47382","MEAN_ELEMENT_THEORY":"SGP4","APOAPSIS":"548.487","GP_ID":"203649883","TLE_LINE2":"2 47382  53.0545 169.1267 0001828  48.3173 311.7972 15.06397693 73363","OBJECT_ID":"2021-005AK","MEAN_MOTION_DDOT":"0.0000000000000","ECCENTRICITY":"0.00018280","INCLINATION":"53.0545","SEMIMAJOR_AXIS":"6925.356","OBJECT_TYPE":"PAYLOAD","MEAN_MOTION_DOT":"-0.00001839","PERIAPSIS":"545.955","DECAY_DATE":null,"RCS_SIZE":"LARGE","MEAN_MOTION":"15.06397693","EPOCH":"2022-05-15T18:43:05.461248","ARG_OF_PERICENTER":"48.3173","SITE":"AFETR","RA_OF_ASC_NODE":"169.1267","COUNTRY_CODE":"US","REF_FRAME":"TEME","CLASSIFICATION_TYPE":"U","BSTAR":"-0.00010460000000","CENTER_NAME":"EARTH","ELEMENT_SET_NO":"999"},{"ELEMENT_SET_NO":"999","CENTER_NAME":"EARTH","CLASSIFICATION_TYPE":"U","BSTAR":"-0.00001117900000","REF_FRAME":"TEME","COUNTRY_CODE":"US","SITE":"AFETR","RA_OF_ASC_NODE":"159.0460","ARG_OF_PERICENTER":"50.9655","EPOCH":"2022-05-15T19:09:35.595360","MEAN_MOTION":"15.06398769","RCS_SIZE":"LARGE","DECAY_DATE":null,"MEAN_MOTION_DOT":"-0.00000448","OBJECT_TYPE":"PAYLOAD","PERIAPSIS":"545.823","INCLINATION":"53.0535","SEMIMAJOR_AXIS":"6925.352","ECCENTRICITY":"0.00020140","OBJECT_ID":"2021-005AL","MEAN_MOTION_DDOT":"0.0000000000000","TLE_LINE2":"2 47383  53.0535 159.0460 0002014  50.9655 309.1513 15.06398769 73512","GP_ID":"203649628","APOAPSIS":"548.612","MEAN_ELEMENT_THEORY":"SGP4","NORAD_CAT_ID":"47383","EPHEMERIS_TYPE":"0","PERIOD":"95.592","TLE_LINE1":"1 47383U 21005AL  22135.79832865 -.00000448  00000-0 -11179-4 0  9995","FILE":"3447521","OBJECT_NAME":"STARLINK-2103","LAUNCH_DATE":"2021-01-20","TIME_SYSTEM":"UTC","REV_AT_EPOCH":"7351","MEAN_ANOMALY":"309.1513"},{"PERIOD":"95.592","TLE_LINE1":"1 47384U 21005AM  22135.80847056 -.00000389  00000-0 -72255-5 0  9993","FILE":"3447521","OBJECT_NAME":"STARLINK-2104","LAUNCH_DATE":"2021-01-20","TIME_SYSTEM":"UTC","REV_AT_EPOCH":"7337","MEAN_ANOMALY":"312.1890","TLE_LINE2":"2 47384  53.0529 169.0022 0001888  47.9260 312.1890 15.06403508 73371","GP_ID":"203648884","APOAPSIS":"548.510","NORAD_CAT_ID":"47384","MEAN_ELEMENT_THEORY":"SGP4","EPHEMERIS_TYPE":"0","RCS_SIZE":"LARGE","MEAN_MOTION":"15.06403508","DECAY_DATE":null,"OBJECT_TYPE":"PAYLOAD","MEAN_MOTION_DOT":"-0.00000389","PERIAPSIS":"545.895","INCLINATION":"53.0529","SEMIMAJOR_AXIS":"6925.338","ECCENTRICITY":"0.00018880","MEAN_MOTION_DDOT":"0.0000000000000","OBJECT_ID":"2021-005AM","ELEMENT_SET_NO":"999","CENTER_NAME":"EARTH","CLASSIFICATION_TYPE":"U","BSTAR":"-0.00000722550000","REF_FRAME":"TEME","COUNTRY_CODE":"US","RA_OF_ASC_NODE":"169.0022","SITE":"AFETR","ARG_OF_PERICENTER":"47.9260","EPOCH":"2022-05-15T19:24:11.856384"},{"APOAPSIS":"548.621","TLE_LINE2":"2 47385  53.0550 168.9151 0002008  54.8438 305.2739 15.06394462 73379","GP_ID":"203649134","EPHEMERIS_TYPE":"0","MEAN_ELEMENT_THEORY":"SGP4","NORAD_CAT_ID":"47385","LAUNCH_DATE":"2021-01-20","TIME_SYSTEM":"UTC","PERIOD":"95.592","TLE_LINE1":"1 47385U 21005AN  22135.82785297 -.00000468  00000-0 -12527-4 0  9997","FILE":"3447521","OBJECT_NAME":"STARLINK-2105","MEAN_ANOMALY":"305.2739","REV_AT_EPOCH":"7337","ELEMENT_SET_NO":"999","CENTER_NAME":"EARTH","CLASSIFICATION_TYPE":"U","BSTAR":"-0.00001252700000","COUNTRY_CODE":"US","REF_FRAME":"TEME","EPOCH":"2022-05-15T19:52:06.496608","SITE":"AFETR","RA_OF_ASC_NODE":"168.9151","ARG_OF_PERICENTER":"54.8438","DECAY_DATE":null,"MEAN_MOTION":"15.06394462","RCS_SIZE":"LARGE","INCLINATION":"53.0550","SEMIMAJOR_AXIS":"6925.366","ECCENTRICITY":"0.00020080","MEAN_MOTION_DDOT":"0.0000000000000","OBJECT_ID":"2021-005AN","PERIAPSIS":"545.840","OBJECT_TYPE":"PAYLOAD","MEAN_MOTION_DOT":"-0.00000468"},{"SEMIMAJOR_AXIS":"6925.349","INCLINATION":"53.0536","ECCENTRICITY":"0.00020530","MEAN_MOTION_DDOT":"0.0000000000000","OBJECT_ID":"2021-005AP","MEAN_MOTION_DOT":"0.00001460","OBJECT_TYPE":"PAYLOAD","PERIAPSIS":"545.792","DECAY_DATE":null,"RCS_SIZE":"LARGE","MEAN_MOTION":"15.06400010","EPOCH":"2022-05-15T18:59:00.205440","RA_OF_ASC_NODE":"169.0765","SITE":"AFETR","ARG_OF_PERICENTER":"41.6068","ELEMENT_SET_NO":"999","CLASSIFICATION_TYPE":"U","CENTER_NAME":"EARTH","BSTAR":"0.00011690000000","REF_FRAME":"TEME","COUNTRY_CODE":"US","MEAN_ANOMALY":"318.5077","REV_AT_EPOCH":"7337","LAUNCH_DATE":"2021-01-20","TIME_SYSTEM":"UTC","PERIOD":"95.592","TLE_LINE1":"1 47386U 21005AP  22135.79097460  .00001460  00000-0  11690-3 0  9992","OBJECT_NAME":"STARLINK-2106","FILE":"3447521","EPHEMERIS_TYPE":"0","NORAD_CAT_ID":"47386","MEAN_ELEMENT_THEORY":"SGP4","APOAPSIS":"548.635","TLE_LINE2":"2 47386  53.0536 169.0765 0002053  41.6068 318.5077 15.06400010 73379","GP_ID":"203649383"},{"MEAN_MOTION_DDOT":"0.0000000000000","OBJECT_ID":"2021-005AQ","ECCENTRICITY":"0.00014100","INCLINATION":"53.0528","SEMIMAJOR_AXIS":"6925.311","OBJECT_TYPE":"PAYLOAD","PERIAPSIS":"546.200","MEAN_MOTION_DOT":"0.00001924","DECAY_DATE":null,"MEAN_MOTION":"15.06412221","RCS_SIZE":"LARGE","EPOCH":"2022-05-15T21:50:10.782528","ARG_OF_PERICENTER":"73.2631","SITE":"AFETR","RA_OF_ASC_NODE":"198.5396","REF_FRAME":"TEME","COUNTRY_CODE":"US","CENTER_NAME":"EARTH","CLASSIFICATION_TYPE":"U","BSTAR":"0.00014801000000","ELEMENT_SET_NO":"999","MEAN_ANOMALY":"286.8512","REV_AT_EPOCH":"7296","TIME_SYSTEM":"UTC","LAUNCH_DATE":"2021-01-20","FILE":"3447521","OBJECT_NAME":"STARLINK-2108","TLE_LINE1":"1 47387U 21005AQ  22135.90984702  .00001924  00000-0  14801-3 0  9992","PERIOD":"95.591","EPHEMERIS_TYPE":"0","NORAD_CAT_ID":"47387","MEAN_ELEMENT_THEORY":"SGP4","APOAPSIS":"548.153","GP_ID":"203650129","TLE_LINE2":"2 47387  53.0528 198.5396 0001410  73.2631 286.8512 15.06412221 72963"},{"APOAPSIS":"548.433","TLE_LINE2":"2 47388  53.0536 199.6655 0001805  50.6977 309.4171 15.06409848 72923","GP_ID":"203648384","EPHEMERIS_TYPE":"0","MEAN_ELEMENT_THEORY":"SGP4","NORAD_CAT_ID":"47388","LAUNCH_DATE":"2021-01-20","TIME_SYSTEM":"UTC","TLE_LINE1":"1 47388U 21005AR  22135.65920485 -.00000430  00000-0 -99359-5 0  9999","FILE":"3447521","OBJECT_NAME":"STARLINK-2109","PERIOD":"95.592","MEAN_ANOMALY":"309.4171","REV_AT_EPOCH":"7292","REF_FRAME":"TEME","COUNTRY_CODE":"US","ELEMENT_SET_NO":"999","CLASSIFICATION_TYPE":"U","BSTAR":"-0.00000993590000","CENTER_NAME":"EARTH","EPOCH":"2022-05-15T15:49:15.299040","ARG_OF_PERICENTER":"50.6977","SITE":"AFETR","RA_OF_ASC_NODE":"199.6655","DECAY_DATE":null,"RCS_SIZE":"LARGE","MEAN_MOTION":"15.06409848","ECCENTRICITY":"0.00018050","OBJECT_ID":"2021-005AR","MEAN_MOTION_DDOT":"0.0000000000000","SEMIMAJOR_AXIS":"6925.318","INCLINATION":"53.0536","OBJECT_TYPE":"PAYLOAD","MEAN_MOTION_DOT":"-0.00000430","PERIAPSIS":"545.933"}];
